HIMAWARI-8              
1 40267U 14060A   23266.50254576 -.00000278  00000+0  00000+0 0  9999
2 40267   0.0172 215.2985 0000776 320.2503 148.1213  1.00273387 32868
